NORAD_CAT_ID,OBJECT_NAME,OBJECT_TYPE,EPOCH,MEAN_MOTION,ECCENTRICITY,INCLINATION,RA_OF_ASC_NODE,ARG_OF_PERICENTER,MEAN_ANOMALY,BSTAR,MEAN_MOTION_DOT,MEAN_MOTION_DDOT,TLE_LINE0,TLE_LINE1,TLE_LINE2,SEMIMAJOR_AXIS,PERIOD,APOGEE,PERIGEE,DECAYED
54084.0,STARLINK-5183,PAYLOAD,2024-02-28 09:38:01,15.08825427,0.0001776,53.2181,57.5443,105.8469,254.2719,0.00047226,7.233e-05,0.0,0 STARLINK-5183,1 54084U 22136AK  24059.40140550  .00007233  00000-0  47226-3 0  9993,2 54084  53.2181  57.5443 0001776 105.8469 254.2719 15.08825427 75706,6917.925,95.438,541.019,538.561,0.0
54084.0,STARLINK-5183,PAYLOAD,2024-02-29 09:28:49,15.08831238,0.0001473,53.2179,53.0839,97.8764,262.2395,3.0736e-05,2.01e-06,0.0,0 STARLINK-5183,1 54084U 22136AK  24060.39501626  .00000201  00000-0  30736-4 0  9995,2 54084  53.2179  53.0839 0001473  97.8764 262.2395 15.08831238 75857,6917.907,95.438,540.791,538.753,0.0
54084.0,STARLINK-5183,PAYLOAD,2024-02-29 20:36:31,15.08835827,0.0001445,53.218,51.0035,97.8119,262.3037,8.0791e-05,9.98e-06,0.0,0 STARLINK-5183,1 54084U 22136AK  24060.85869416  .00000998  00000-0  80791-4 0  9999,2 54084  53.2180  51.0035 0001445  97.8119 262.3037 15.08835827 75445,6917.893,95.438,540.758,538.759,0.0
54084.0,STARLINK-5183,PAYLOAD,2024-03-01 02:58:03,15.08842304,0.0001487,53.2181,49.8125,98.5751,261.541,0.00010555,1.392e-05,0.0,0 STARLINK-5183,1 54084U 22136AK  24061.12365029  .00001392  00000-0  10555-3 0  9990,2 54084  53.2181  49.8125 0001487  98.5751 261.5410 15.08842304 75968,6917.873,95.437,540.767,538.71,0.0
54084.0,STARLINK-5183,PAYLOAD,2024-03-01 06:08:49,15.08846722,0.0001465,53.2171,49.2202,98.1011,262.0147,0.00019302,2.786e-05,0.0,0 STARLINK-5183,1 54084U 22136AK  24061.25612864  .00002786  00000-0  19302-3 0  9993,2 54084  53.2171  49.2202 0001465  98.1011 262.0147 15.08846722 75509,6917.86,95.437,540.738,538.711,0.0
54084.0,STARLINK-5183,PAYLOAD,2024-03-02 05:59:36,15.08847001,0.0001506,53.2174,44.7606,100.8567,259.2594,0.0002758,4.105e-05,0.0,0 STARLINK-5183,1 54084U 22136AK  24062.24972895  .00004105  00000-0  27580-3 0  9990,2 54084  53.2174  44.7606 0001506 100.8567 259.2594 15.08847001 76138,6917.859,95.437,540.766,538.682,0.0
54084.0,STARLINK-5183,PAYLOAD,2024-03-03 04:15:00,15.08841902,0.0001689,53.2182,40.6005,110.4354,249.6819,4.6271e-06,-2.14e-06,0.0,0 STARLINK-5183,1 54084U 22136AK  24063.17708913 -.00000214  00000-0  46271-5 0  9999,2 54084  53.2182  40.6005 0001689 110.4354 249.6819 15.08841902 76270,6917.875,95.437,540.908,538.571,0.0
54084.0,STARLINK-5183,PAYLOAD,2024-03-03 07:25:46,15.08844342,0.0001478,53.2173,40.0015,96.9309,263.1851,4.9381e-05,4.98e-06,0.0,0 STARLINK-5183,1 54084U 22136AK  24063.30956786  .00000498  00000-0  49381-4 0  9994,2 54084  53.2173  40.0015 0001478  96.9309 263.1851 15.08844342 75816,6917.867,95.437,540.755,538.71,0.0
54084.0,STARLINK-5183,PAYLOAD,2024-03-03 21:44:14,15.08846215,0.0001509,53.2178,37.3276,96.4871,263.6293,0.00014935,2.09e-05,0.0,0 STARLINK-5183,1 54084U 22136AK  24063.90572831  .00002090  00000-0  14935-3 0  9991,2 54084  53.2178  37.3276 0001509  96.4871 263.6293 15.08846215 75909,6917.861,95.437,540.77,538.682,0.0
54084.0,STARLINK-5183,PAYLOAD,2024-03-04 05:41:10,15.08850794,0.0001715,53.2182,35.8436,85.8604,274.2584,0.00013917,1.928e-05,0.0,0 STARLINK-5183,1 54084U 22136AK  24064.23692408  .00001928  00000-0  13917-3 0  9999,2 54084  53.2182  35.8436 0001715  85.8604 274.2584 15.08850794 76437,6917.847,95.437,540.899,538.526,0.0
54084.0,STARLINK-5183,PAYLOAD,2024-03-04 15:13:29,15.08840681,0.0001668,53.2197,34.0514,87.8479,272.2704,5.7323e-05,6.24e-06,0.0,0 STARLINK-5183,1 54084U 22136AK  24064.63436846  .00000624  00000-0  57323-4 0  9997,2 54084  53.2197  34.0514 0001668  87.8479 272.2704 15.08840681 76492,6917.878,95.438,540.897,538.589,0.0
54084.0,STARLINK-5183,PAYLOAD,2024-03-05 03:56:34,15.08833886,0.0001555,53.2201,31.6708,92.1691,267.9479,-5.229e-05,-1.12e-05,0.0,0 STARLINK-5183,1 54084U 22136AK  24065.16429330 -.00001120  00000-0 -52290-4 0  9998,2 54084  53.2201  31.6708 0001555  92.1691 267.9479 15.08833886 76574,6917.899,95.438,540.84,538.688,0.0
54084.0,STARLINK-5183,PAYLOAD,2024-03-05 07:07:21,15.088365,0.0001477,53.2189,31.0746,97.2999,262.8161,-1.7957e-05,-5.74e-06,0.0,0 STARLINK-5183,1 54084U 22136AK  24065.29677168 -.00000574  00000-0 -17957-4 0  9999,2 54084  53.2189  31.0746 0001477  97.2999 262.8161 15.08836500 76113,6917.891,95.438,540.778,538.734,0.0
54084.0,STARLINK-5183,PAYLOAD,2024-03-05 15:04:16,15.08844219,0.0001413,53.2196,29.5903,93.1725,266.9429,5.1161e-05,5.26e-06,0.0,0 STARLINK-5183,1 54084U 22136AK  24065.62796928  .00000526  00000-0  51161-4 0  9992,2 54084  53.2196  29.5903 0001413  93.1725 266.9429 15.08844219 76646,6917.867,95.437,540.71,538.755,0.0
54084.0,STARLINK-5183,PAYLOAD,2024-03-06 02:11:58,15.08840148,0.0001182,53.2185,27.5105,95.3582,264.7545,0.00023853,3.51e-05,0.0,0 STARLINK-5183,1 54084U 22136AK  24066.09165254  .00003510  00000-0  23853-3 0  9998,2 54084  53.2185  27.5105 0001182  95.3582 264.7545 15.08840148 76231,6917.88,95.438,540.563,538.927,0.0
54084.0,STARLINK-5183,PAYLOAD,2024-03-07 03:38:10,15.08809879,0.0001377,53.219,22.7549,91.2783,268.8367,0.00056971,8.783e-05,0.0,0 STARLINK-5183,1 54084U 22136AK  24067.15150728  .00008783  00000-0  56971-3 0  9990,2 54084  53.2190  22.7549 0001377  91.2783 268.8367 15.08809879 76873,6917.972,95.439,540.79,538.885,0.0
54084.0,STARLINK-5183,PAYLOAD,2024-03-08 01:53:33,15.08838048,0.0001529,53.2198,18.5926,86.8678,273.2489,2.1287e-05,5.1e-07,0.0,0 STARLINK-5183,1 54084U 22136AK  24068.07885810  .00000051  00000-0  21287-4 0  9992,2 54084  53.2198  18.5926 0001529  86.8678 273.2489 15.08838048 77017,6917.886,95.438,540.809,538.694,0.0
54084.0,STARLINK-5183,PAYLOAD,2024-03-08 06:39:42,15.0883912,0.000154,53.2193,17.6947,90.4935,269.6234,7.1654e-05,8.53e-06,0.0,0 STARLINK-5183,1 54084U 22136AK  24068.27757559  .00000853  00000-0  71654-4 0  9995,2 54084  53.2193  17.6947 0001540  90.4935 269.6234 15.08839120 76563,6917.883,95.438,540.813,538.683,0.0
54084.0,STARLINK-5183,PAYLOAD,2024-03-08 20:58:10,15.08838529,0.0001569,53.2194,15.0193,101.0332,259.0836,6.365e-05,7.25e-06,0.0,0 STARLINK-5183,1 54084U 22136AK  24068.87373620  .00000725  00000-0  63650-4 0  9999,2 54084  53.2194  15.0193 0001569 101.0332 259.0836 15.08838529 76653,6917.885,95.438,540.835,538.664,0.0
54084.0,STARLINK-5183,PAYLOAD,2024-03-09 03:19:43,15.08843837,0.0001426,53.2192,13.8361,88.9397,271.1759,9.8666e-05,1.283e-05,0.0,0 STARLINK-5183,1 54084U 22136AK  24069.13869276  .00001283  00000-0  98666-4 0  9991,2 54084  53.2192  13.8361 0001426  88.9397 271.1759 15.08843837 77175,6917.869,95.437,540.72,538.747,0.0
54084.0,STARLINK-5183,PAYLOAD,2024-03-09 12:52:02,15.08835527,0.0001717,53.2193,12.0497,86.0945,274.0243,6.7617e-05,7.88e-06,0.0,0 STARLINK-5183,1 54084U 22136AK  24069.53613967  .00000788  00000-0  67617-4 0  9990,2 54084  53.2193  12.0497 0001717  86.0945 274.0243 15.08835527 77232,6917.894,95.438,540.947,538.571,0.0
54084.0,STARLINK-5183,PAYLOAD,2024-03-10 04:45:52,15.08849131,0.0001277,53.2194,9.0756,94.5048,265.609,6.9458e-05,8.18e-06,0.0,0 STARLINK-5183,1 54084U 22136AK  24070.19852948  .00000818  00000-0  69458-4 0  9997,2 54084  53.2194   9.0756 0001277  94.5048 265.6090 15.08849131 77339,6917.852,95.437,540.601,538.834,0.0
54084.0,STARLINK-5183,PAYLOAD,2024-03-10 12:42:48,15.08844598,0.0001364,53.2193,7.589,86.4177,273.6971,2.333e-05,8.3e-07,0.0,0 STARLINK-5183,1 54084U 22136AK  24070.52973264  .00000083  00000-0  23330-4 0  9992,2 54084  53.2193   7.5890 0001364  86.4177 273.6971 15.08844598 76901,6917.866,95.437,540.675,538.788,0.0
54084.0,STARLINK-5183,PAYLOAD,2024-03-11 04:36:40,15.08838454,0.0001199,53.2178,4.6154,104.3952,255.7173,9.0792e-06,-1.43e-06,0.0,0 STARLINK-5183,1 54084U 22136AK  24071.19214021 -.00000143  00000-0  90792-5 0  9990,2 54084  53.2178   4.6154 0001199 104.3952 255.7173 15.08838454 77485,6917.885,95.438,540.58,538.921,0.0
54084.0,STARLINK-5183,PAYLOAD,2024-03-11 12:33:36,15.0883848,0.000125,53.2185,3.1271,82.9646,277.1489,1e-05,-1.29e-06,0.0,0 STARLINK-5183,1 54084U 22136AK  24071.52334087 -.00000129  00000-0  10000-4 0  9999,2 54084  53.2185   3.1271 0001250  82.9646 277.1489 15.08838480 77056,6917.885,95.438,540.615,538.885,0.0
54084.0,STARLINK-5183,PAYLOAD,2024-03-12 02:52:05,15.08839473,0.000137,53.2192,0.4532,93.356,266.7588,-3.8704e-05,-9.04e-06,0.0,0 STARLINK-5183,1 54084U 22136AK  24072.11950531 -.00000904  00000-0 -38704-4 0  9996,2 54084  53.2192   0.4532 0001370  93.3560 266.7588 15.08839473 77145,6917.882,95.438,540.695,538.799,0.0
54084.0,STARLINK-5183,PAYLOAD,2024-03-13 04:18:15,15.0883816,0.0001307,53.2186,355.6958,94.3854,265.7288,0.0001978,2.861e-05,0.0,0 STARLINK-5183,1 54084U 22136AK  24073.17934695  .00002861  00000-0  19780-3 0  9990,2 54084  53.2186 355.6958 0001307  94.3854 265.7288 15.08838160 77780,6917.886,95.438,540.655,538.847,0.0
54084.0,STARLINK-5183,PAYLOAD,2024-03-13 12:15:11,15.08840783,0.0001528,53.2193,354.2067,104.4222,255.6939,0.00016763,2.381e-05,0.0,0 STARLINK-5183,1 54084U 22136AK  24073.51054730  .00002381  00000-0  16763-3 0  9996,2 54084  53.2193 354.2067 0001528 104.4222 255.6939 15.08840783 77359,6917.878,95.438,540.8,538.686,0.0
54084.0,STARLINK-5183,PAYLOAD,2024-03-13 21:47:29,15.08847022,0.0001314,53.2194,352.4234,95.6187,264.4955,0.00018769,2.701e-05,0.0,0 STARLINK-5183,1 54084U 22136AK  24073.90798157  .00002701  00000-0  18769-3 0  9991,2 54084  53.2194 352.4234 0001314  95.6187 264.4955 15.08847022 77416,6917.859,95.437,540.633,538.815,0.0
54084.0,STARLINK-5183,PAYLOAD,2024-03-14 04:09:01,15.08858216,0.0001547,53.2185,351.2314,103.6814,256.4351,0.00042783,6.531e-05,0.0,0 STARLINK-5183,1 54084U 22136AK  24074.17293914  .00006531  00000-0  42783-3 0  9990,2 54084  53.2185 351.2314 0001547 103.6814 256.4351 15.08858216 77932,6917.825,95.436,540.76,538.62,0.0
